CCSDS_OMM_VERS = 2.0
CREATION_DATE  = 
ORIGINATOR     = 

OBJECT_NAME    = SL-16 R/B
OBJECT_ID      = 1994-077B
CENTER_NAME    = EARTH
REF_FRAME      = TEME
TIME_SYSTEM    = UTC
MEAN_ELEMENT_THEORY = SGP/SGP4

EPOCH          = 2026-05-23T12:42:50.283360
MEAN_MOTION    = 14.15574019
ECCENTRICITY   = .0001603
INCLINATION    = 70.9822
RA_OF_ASC_NODE = 195.0377
ARG_OF_PERICENTER = 354.4667
MEAN_ANOMALY   = 5.6438

EPHEMERIS_TYPE = 0
CLASSIFICATION_TYPE = U
NORAD_CAT_ID   = 23405
ELEMENT_SET_NO = 999
REV_AT_EPOCH   = 62682
BSTAR          = .15474E-3
MEAN_MOTION_DOT = .255E-5
MEAN_MOTION_DDOT = 0

CCSDS_OMM_VERS = 2.0
CREATION_DATE  = 
ORIGINATOR     = 

OBJECT_NAME    = ARIANE 40+ R/B
OBJECT_ID      = 1995-021B
CENTER_NAME    = EARTH
REF_FRAME      = TEME
TIME_SYSTEM    = UTC
MEAN_ELEMENT_THEORY = SGP/SGP4

EPOCH          = 2026-05-23T10:39:24.568704
MEAN_MOTION    = 14.39817540
ECCENTRICITY   = .0005463
INCLINATION    = 98.4417
RA_OF_ASC_NODE = 213.8753
ARG_OF_PERICENTER = 278.8398
MEAN_ANOMALY   = 91.6432

EPHEMERIS_TYPE = 0
CLASSIFICATION_TYPE = U
NORAD_CAT_ID   = 23561
ELEMENT_SET_NO = 999
REV_AT_EPOCH   = 63000
BSTAR          = .71029E-4
MEAN_MOTION_DOT = .179E-5
MEAN_MOTION_DDOT = 0

CCSDS_OMM_VERS = 2.0
CREATION_DATE  = 
ORIGINATOR     = 

OBJECT_NAME    = SL-16 R/B
OBJECT_ID      = 1995-058B
CENTER_NAME    = EARTH
REF_FRAME      = TEME
TIME_SYSTEM    = UTC
MEAN_ELEMENT_THEORY = SGP/SGP4

EPOCH          = 2026-05-22T09:49:55.665984
MEAN_MOTION    = 14.15508550
ECCENTRICITY   = .0012543
INCLINATION    = 71.0232
RA_OF_ASC_NODE = 25.4804
ARG_OF_PERICENTER = 357.0261
MEAN_ANOMALY   = 3.0785

EPHEMERIS_TYPE = 0
CLASSIFICATION_TYPE = U
NORAD_CAT_ID   = 23705
ELEMENT_SET_NO = 999
REV_AT_EPOCH   = 57828
BSTAR          = .54359E-4
MEAN_MOTION_DOT = .59E-6
MEAN_MOTION_DDOT = 0

CCSDS_OMM_VERS = 2.0
CREATION_DATE  = 
ORIGINATOR     = 

OBJECT_NAME    = SL-16 R/B
OBJECT_ID      = 1996-051B
CENTER_NAME    = EARTH
REF_FRAME      = TEME
TIME_SYSTEM    = UTC
MEAN_ELEMENT_THEORY = SGP/SGP4

EPOCH          = 2026-05-23T09:15:55.465632
MEAN_MOTION    = 14.12436852
ECCENTRICITY   = .0013515
INCLINATION    = 70.7635
RA_OF_ASC_NODE = 17.1396
ARG_OF_PERICENTER = 16.4782
MEAN_ANOMALY   = 343.6774

EPHEMERIS_TYPE = 0
CLASSIFICATION_TYPE = U
NORAD_CAT_ID   = 24298
ELEMENT_SET_NO = 999
REV_AT_EPOCH   = 53219
BSTAR          = .90943E-4
MEAN_MOTION_DOT = .119E-5
MEAN_MOTION_DDOT = 0

CCSDS_OMM_VERS = 2.0
CREATION_DATE  = 
ORIGINATOR     = 

OBJECT_NAME    = ORBVIEW 2 (SEASTAR)
OBJECT_ID      = 1997-037A
CENTER_NAME    = EARTH
REF_FRAME      = TEME
TIME_SYSTEM    = UTC
MEAN_ELEMENT_THEORY = SGP/SGP4

EPOCH          = 2026-05-23T11:39:26.974368
MEAN_MOTION    = 14.35538493
ECCENTRICITY   = .0002162
INCLINATION    = 98.8670
RA_OF_ASC_NODE = 309.8232
ARG_OF_PERICENTER = 170.4014
MEAN_ANOMALY   = 189.7212

EPHEMERIS_TYPE = 0
CLASSIFICATION_TYPE = U
NORAD_CAT_ID   = 24883
ELEMENT_SET_NO = 999
REV_AT_EPOCH   = 51920
BSTAR          = .66737E-4
MEAN_MOTION_DOT = .145E-5
MEAN_MOTION_DDOT = 0

CCSDS_OMM_VERS = 2.0
CREATION_DATE  = 
ORIGINATOR     = 

OBJECT_NAME    = SL-16 R/B
OBJECT_ID      = 1998-043G
CENTER_NAME    = EARTH
REF_FRAME      = TEME
TIME_SYSTEM    = UTC
MEAN_ELEMENT_THEORY = SGP/SGP4

EPOCH          = 2026-05-23T10:55:29.345664
MEAN_MOTION    = 14.26063902
ECCENTRICITY   = .0010278
INCLINATION    = 98.8352
RA_OF_ASC_NODE = 97.4040
ARG_OF_PERICENTER = 152.0887
MEAN_ANOMALY   = 208.0845

EPHEMERIS_TYPE = 0
CLASSIFICATION_TYPE = U
NORAD_CAT_ID   = 25400
ELEMENT_SET_NO = 999
REV_AT_EPOCH   = 44964
BSTAR          = .32624E-4
MEAN_MOTION_DOT = .33E-6
MEAN_MOTION_DDOT = 0

CCSDS_OMM_VERS = 2.0
CREATION_DATE  = 
ORIGINATOR     = 

OBJECT_NAME    = SL-16 R/B
OBJECT_ID      = 1998-045B
CENTER_NAME    = EARTH
REF_FRAME      = TEME
TIME_SYSTEM    = UTC
MEAN_ELEMENT_THEORY = SGP/SGP4

EPOCH          = 2026-05-23T08:57:29.860992
MEAN_MOTION    = 14.16199533
ECCENTRICITY   = .0009704
INCLINATION    = 71.0123
RA_OF_ASC_NODE = 24.5152
ARG_OF_PERICENTER = 270.9694
MEAN_ANOMALY   = 89.0317

EPHEMERIS_TYPE = 0
CLASSIFICATION_TYPE = U
NORAD_CAT_ID   = 25407
ELEMENT_SET_NO = 999
REV_AT_EPOCH   = 43767
BSTAR          = -.73738E-4
MEAN_MOTION_DOT = -.194E-5
MEAN_MOTION_DDOT = 0

CCSDS_OMM_VERS = 2.0
CREATION_DATE  = 
ORIGINATOR     = 

OBJECT_NAME    = ISS (ZARYA)
OBJECT_ID      = 1998-067A
CENTER_NAME    = EARTH
REF_FRAME      = TEME
TIME_SYSTEM    = UTC
MEAN_ELEMENT_THEORY = SGP/SGP4

EPOCH          = 2026-05-23T11:41:32.753760
MEAN_MOTION    = 15.49328337
ECCENTRICITY   = .0007523
INCLINATION    = 51.6326
RA_OF_ASC_NODE = 62.3775
ARG_OF_PERICENTER = 89.6569
MEAN_ANOMALY   = 270.5281

EPHEMERIS_TYPE = 0
CLASSIFICATION_TYPE = U
NORAD_CAT_ID   = 25544
ELEMENT_SET_NO = 999
REV_AT_EPOCH   = 56792
BSTAR          = .1293E-3
MEAN_MOTION_DOT = .6763E-4
MEAN_MOTION_DDOT = 0

CCSDS_OMM_VERS = 2.0
CREATION_DATE  = 
ORIGINATOR     = 

OBJECT_NAME    = CZ-4B R/B
OBJECT_ID      = 1999-025C
CENTER_NAME    = EARTH
REF_FRAME      = TEME
TIME_SYSTEM    = UTC
MEAN_ELEMENT_THEORY = SGP/SGP4

EPOCH          = 2026-05-23T12:53:18.146112
MEAN_MOTION    = 14.18278551
ECCENTRICITY   = .0038059
INCLINATION    = 98.6501
RA_OF_ASC_NODE = 185.9940
ARG_OF_PERICENTER = 128.5571
MEAN_ANOMALY   = 34.9947

EPHEMERIS_TYPE = 0
CLASSIFICATION_TYPE = U
NORAD_CAT_ID   = 25732
ELEMENT_SET_NO = 999
REV_AT_EPOCH   = 39877
BSTAR          = .35622E-4
MEAN_MOTION_DOT = .31E-6
MEAN_MOTION_DDOT = 0

CCSDS_OMM_VERS = 2.0
CREATION_DATE  = 
ORIGINATOR     = 

OBJECT_NAME    = OKEAN-O
OBJECT_ID      = 1999-039A
CENTER_NAME    = EARTH
REF_FRAME      = TEME
TIME_SYSTEM    = UTC
MEAN_ELEMENT_THEORY = SGP/SGP4

EPOCH          = 2026-05-23T09:46:50.673216
MEAN_MOTION    = 14.80432248
ECCENTRICITY   = .0001986
INCLINATION    = 97.9331
RA_OF_ASC_NODE = 202.4883
ARG_OF_PERICENTER = 93.0272
MEAN_ANOMALY   = 267.1167

EPHEMERIS_TYPE = 0
CLASSIFICATION_TYPE = U
NORAD_CAT_ID   = 25860
ELEMENT_SET_NO = 999
REV_AT_EPOCH   = 44544
BSTAR          = .60802E-4
MEAN_MOTION_DOT = .413E-5
MEAN_MOTION_DDOT = 0

CCSDS_OMM_VERS = 2.0
CREATION_DATE  = 
ORIGINATOR     = 

OBJECT_NAME    = SL-16 R/B
OBJECT_ID      = 1999-039B
CENTER_NAME    = EARTH
REF_FRAME      = TEME
TIME_SYSTEM    = UTC
MEAN_ELEMENT_THEORY = SGP/SGP4

EPOCH          = 2026-05-22T04:04:00.074784
MEAN_MOTION    = 14.81815113
ECCENTRICITY   = .00152635
INCLINATION    = 97.9852
RA_OF_ASC_NODE = 201.1048
ARG_OF_PERICENTER = 24.2961
MEAN_ANOMALY   = 335.8968

EPHEMERIS_TYPE = 0
CLASSIFICATION_TYPE = U
NORAD_CAT_ID   = 25861
ELEMENT_SET_NO = 999
REV_AT_EPOCH   = 44774
BSTAR          = .46949157E-4
MEAN_MOTION_DOT = .317E-5
MEAN_MOTION_DDOT = 0

CCSDS_OMM_VERS = 2.0
CREATION_DATE  = 
ORIGINATOR     = 

OBJECT_NAME    = DELTA 2 R/B
OBJECT_ID      = 1999-041E
CENTER_NAME    = EARTH
REF_FRAME      = TEME
TIME_SYSTEM    = UTC
MEAN_ELEMENT_THEORY = SGP/SGP4

EPOCH          = 2026-05-23T13:03:39.883104
MEAN_MOTION    = 14.11965304
ECCENTRICITY   = .0501571
INCLINATION    = 51.7652
RA_OF_ASC_NODE = 2.2357
ARG_OF_PERICENTER = 209.1972
MEAN_ANOMALY   = 148.0047

EPHEMERIS_TYPE = 0
CLASSIFICATION_TYPE = U
NORAD_CAT_ID   = 25876
ELEMENT_SET_NO = 999
REV_AT_EPOCH   = 37360
BSTAR          = .10471E-3
MEAN_MOTION_DOT = .413E-5
MEAN_MOTION_DDOT = 0

CCSDS_OMM_VERS = 2.0
CREATION_DATE  = 
ORIGINATOR     = 

OBJECT_NAME    = HELIOS 1B
OBJECT_ID      = 1999-064A
CENTER_NAME    = EARTH
REF_FRAME      = TEME
TIME_SYSTEM    = UTC
MEAN_ELEMENT_THEORY = SGP/SGP4

EPOCH          = 2026-05-23T07:08:14.209152
MEAN_MOTION    = 14.87928678
ECCENTRICITY   = .0001769
INCLINATION    = 98.1633
RA_OF_ASC_NODE = 47.7157
ARG_OF_PERICENTER = 123.8557
MEAN_ANOMALY   = 236.2827

EPHEMERIS_TYPE = 0
CLASSIFICATION_TYPE = U
NORAD_CAT_ID   = 25977
ELEMENT_SET_NO = 999
REV_AT_EPOCH   = 69635
BSTAR          = .11498E-3
MEAN_MOTION_DOT = .995E-5
MEAN_MOTION_DDOT = 0

CCSDS_OMM_VERS = 2.0
CREATION_DATE  = 
ORIGINATOR     = 

OBJECT_NAME    = TERRA
OBJECT_ID      = 1999-068A
CENTER_NAME    = EARTH
REF_FRAME      = TEME
TIME_SYSTEM    = UTC
MEAN_ELEMENT_THEORY = SGP/SGP4

EPOCH          = 2026-05-23T12:19:48.055296
MEAN_MOTION    = 14.61080055
ECCENTRICITY   = .0001302
INCLINATION    = 97.9471
RA_OF_ASC_NODE = 194.0363
ARG_OF_PERICENTER = 344.2119
MEAN_ANOMALY   = 145.7879

EPHEMERIS_TYPE = 0
CLASSIFICATION_TYPE = U
NORAD_CAT_ID   = 25994
ELEMENT_SET_NO = 999
REV_AT_EPOCH   = 40600
BSTAR          = .60351E-4
MEAN_MOTION_DOT = .252E-5
MEAN_MOTION_DDOT = 0

CCSDS_OMM_VERS = 2.0
CREATION_DATE  = 
ORIGINATOR     = 

OBJECT_NAME    = SL-16 R/B
OBJECT_ID      = 2000-006B
CENTER_NAME    = EARTH
REF_FRAME      = TEME
TIME_SYSTEM    = UTC
MEAN_ELEMENT_THEORY = SGP/SGP4

EPOCH          = 2026-05-23T13:11:07.328832
MEAN_MOTION    = 14.15831797
ECCENTRICITY   = .0014634
INCLINATION    = 71.0020
RA_OF_ASC_NODE = 300.4297
ARG_OF_PERICENTER = 64.8274
MEAN_ANOMALY   = 295.4365

EPHEMERIS_TYPE = 0
CLASSIFICATION_TYPE = U
NORAD_CAT_ID   = 26070
ELEMENT_SET_NO = 999
REV_AT_EPOCH   = 35915
BSTAR          = .13062E-3
MEAN_MOTION_DOT = .209E-5
MEAN_MOTION_DDOT = 0

